NORAD_CAT_ID,OBJECT_NAME,OBJECT_TYPE,EPOCH,MEAN_MOTION,ECCENTRICITY,INCLINATION,RA_OF_ASC_NODE,ARG_OF_PERICENTER,MEAN_ANOMALY,BSTAR,MEAN_MOTION_DOT,MEAN_MOTION_DDOT,TLE_LINE0,TLE_LINE1,TLE_LINE2,SEMIMAJOR_AXIS,PERIOD,APOGEE,PERIGEE,DECAYED
53562.0,STARLINK-4565,PAYLOAD,2023-03-09 21:08:25,15.08869048,0.0001177,53.217,293.5132,74.8504,285.2619,0.0014684,0.00023177,0.0,0 STARLINK-4565,1 53562U 22101AM  23068.88084976  .00023177  00000-0  14684-2 0  9991,2 53562  53.2170 293.5132 0001177  74.8504 285.2619 15.08869048 31679,6917.792,95.436,540.471,538.842,0.0
53562.0,STARLINK-4565,PAYLOAD,2023-03-10 08:16:07,15.08854335,9.62e-05,53.2144,291.43,62.2452,297.8637,0.0010539,0.00016531,0.0,0 STARLINK-4565,1 53562U 22101AM  23069.34453125  .00016531  00000-0  10539-2 0  9990,2 53562  53.2144 291.4300 0000962  62.2452 297.8637 15.08854335 31085,6917.837,95.437,540.367,539.036,0.0
53562.0,STARLINK-4565,PAYLOAD,2023-03-10 19:23:50,15.08820596,0.0001232,53.2168,289.3487,59.1682,300.9431,0.00099823,0.00015626,0.0,0 STARLINK-4565,1 53562U 22101AM  23069.80821996  .00015626  00000-0  99823-3 0  9994,2 53562  53.2168 289.3487 0001232  59.1682 300.9431 15.08820596 31152,6917.94,95.439,540.657,538.952,0.0
53562.0,STARLINK-4565,PAYLOAD,2023-03-10 20:59:13,15.08822419,0.0001401,53.2168,289.052,57.9967,302.1161,0.0013082,0.00020583,0.0,0 STARLINK-4565,1 53562U 22101AM  23069.87446132  .00020583  00000-0  13082-2 0  9996,2 53562  53.2168 289.0520 0001401  57.9967 302.1161 15.08822419 31821,6917.934,95.439,540.768,538.83,0.0
53562.0,STARLINK-4565,PAYLOAD,2023-03-11 03:20:45,15.08846603,0.0001254,53.216,287.8619,61.0299,299.0819,0.0020661,0.00032753,0.0,0 STARLINK-4565,1 53562U 22101AM  23070.13942036  .00032753  00000-0  20661-2 0  9994,2 53562  53.2160 287.8619 0001254  61.0299 299.0819 15.08846603 31205,6917.86,95.437,540.593,538.858,0.0
53562.0,STARLINK-4565,PAYLOAD,2023-03-11 04:56:09,15.08827472,0.0001277,53.2162,287.5644,51.4695,308.6412,0.0014519,0.00022887,0.0,0 STARLINK-4565,1 53562U 22101AM  23070.20566375  .00022887  00000-0  14519-2 0  9992,2 53562  53.2162 287.5644 0001277  51.4695 308.6412 15.08827472 31210,6917.919,95.438,540.667,538.9,0.0
53562.0,STARLINK-4565,PAYLOAD,2023-03-11 14:28:28,15.08846571,0.0001216,53.2165,285.7802,64.5946,295.5172,0.0012097,0.0001902,0.0,0 STARLINK-4565,1 53562U 22101AM  23070.60310330  .00019020  00000-0  12097-2 0  9998,2 53562  53.2165 285.7802 0001216  64.5946 295.5172 15.08846571 31933,6917.86,95.437,540.567,538.884,0.0
53562.0,STARLINK-4565,PAYLOAD,2023-03-11 20:50:00,15.08861328,0.0001288,53.2169,284.5908,66.7765,293.3362,0.0016814,0.00026588,0.0,0 STARLINK-4565,1 53562U 22101AM  23070.86806011  .00026588  00000-0  16814-2 0  9990,2 53562  53.2169 284.5908 0001288  66.7765 293.3362 15.08861328 31971,6917.815,95.436,540.571,538.789,0.0
53562.0,STARLINK-4565,PAYLOAD,2023-03-12 04:46:56,15.08839088,0.0001754,53.2167,283.1038,60.4301,299.6866,-0.0002374,-4.064e-05,0.0,0 STARLINK-4565,1 53562U 22101AM  23071.19926062 -.00004064  00000-0 -23740-3 0  9990,2 53562  53.2167 283.1038 0001754  60.4301 299.6866 15.08839088 31362,6917.883,95.438,540.962,538.535,0.0
53562.0,STARLINK-4565,PAYLOAD,2023-03-12 14:19:14,15.08847521,0.000124,53.2166,281.32,74.8634,285.2496,0.00063159,9.78e-05,0.0,0 STARLINK-4565,1 53562U 22101AM  23071.59669881  .00009780  00000-0  63159-3 0  9993,2 53562  53.2166 281.3200 0001240  74.8634 285.2496 15.08847521 32081,6917.857,95.437,540.58,538.865,0.0
53562.0,STARLINK-4565,PAYLOAD,2023-03-12 19:05:24,15.08851093,0.0001238,53.2166,280.4276,75.092,285.021,0.0012879,0.00020275,0.0,0 STARLINK-4565,1 53562U 22101AM  23071.79541877  .00020275  00000-0  12879-2 0  9993,2 53562  53.2166 280.4276 0001238  75.0920 285.0210 15.08851093 31453,6917.846,95.437,540.568,538.855,0.0
53562.0,STARLINK-4565,PAYLOAD,2023-03-12 22:16:10,15.08856193,0.0001256,53.2167,279.8329,73.9884,286.1247,0.001698,0.00026851,0.0,0 STARLINK-4565,1 53562U 22101AM  23071.92789828  .00026851  00000-0  16980-2 0  9991,2 53562  53.2167 279.8329 0001256  73.9884 286.1247 15.08856193 32135,6917.831,95.437,540.565,538.827,0.0
53562.0,STARLINK-4565,PAYLOAD,2023-03-13 04:37:43,15.08843975,0.0001358,53.217,278.6435,70.5722,289.5417,0.00077476,0.00012065,0.0,0 STARLINK-4565,1 53562U 22101AM  23072.19286004  .00012065  00000-0  77476-3 0  9999,2 53562  53.2170 278.6435 0001358  70.5722 289.5417 15.08843975 31512,6917.868,95.437,540.673,538.794,0.0
53562.0,STARLINK-4565,PAYLOAD,2023-03-13 14:10:01,15.08849664,0.0001167,53.217,276.8592,81.5061,278.6064,0.0008003,0.00012475,0.0,0 STARLINK-4565,1 53562U 22101AM  23072.59029837  .00012475  00000-0  80030-3 0  9997,2 53562  53.2170 276.8592 0001167  81.5061 278.6064 15.08849664 32230,6917.851,95.437,540.523,538.909,0.0
53562.0,STARLINK-4565,PAYLOAD,2023-03-13 22:06:57,15.08858346,0.0001171,53.2169,275.373,78.5706,281.5418,0.0014164,0.00022337,0.0,0 STARLINK-4565,1 53562U 22101AM  23072.92149672  .00022337  00000-0  14164-2 0  9996,2 53562  53.2169 275.3730 0001171  78.5706 281.5418 15.08858346 32281,6917.824,95.436,540.499,538.879,0.0
53562.0,STARLINK-4565,PAYLOAD,2023-03-14 04:28:30,15.08843465,0.0001372,53.2168,274.1836,68.6877,291.4262,0.00061665,9.541e-05,0.0,0 STARLINK-4565,1 53562U 22101AM  23073.18645926  .00009541  00000-0  61665-3 0  9999,2 53562  53.2168 274.1836 0001372  68.6877 291.4262 15.08843465 31660,6917.87,95.437,540.684,538.786,0.0
53562.0,STARLINK-4565,PAYLOAD,2023-03-14 14:00:48,15.08847739,0.0001104,53.2167,272.399,95.3909,264.7209,0.00098066,0.00015357,0.0,0 STARLINK-4565,1 53562U 22101AM  23073.58389767  .00015357  00000-0  98066-3 0  9998,2 53562  53.2167 272.3990 0001104  95.3909 264.7209 15.08847739 32388,6917.857,95.437,540.485,538.958,0.0
53562.0,STARLINK-4565,PAYLOAD,2023-03-14 20:22:21,15.08857828,0.00011,53.2165,271.2101,93.3644,266.7474,0.0015954,0.00025206,0.0,0 STARLINK-4565,1 53562U 22101AM  23073.84885566  .00025206  00000-0  15954-2 0  9993,2 53562  53.2165 271.2101 0001100  93.3644 266.7474 15.08857828 32429,6917.826,95.436,540.452,538.93,0.0
53562.0,STARLINK-4565,PAYLOAD,2023-03-15 12:16:12,15.08839826,0.0001226,53.2164,268.2363,81.7407,278.3724,8.747e-05,1.104e-05,0.0,0 STARLINK-4565,1 53562U 22101AM  23074.51125775  .00001104  00000-0  87470-4 0  9992,2 53562  53.2164 268.2363 0001226  81.7407 278.3724 15.08839826 31863,6917.881,95.438,540.594,538.898,0.0
53562.0,STARLINK-4565,PAYLOAD,2023-03-15 21:48:31,15.0884839,0.0001195,53.216,266.4527,79.1236,280.9891,0.0011449,0.00017984,0.0,0 STARLINK-4565,1 53562U 22101AM  23074.90869632  .00017984  00000-0  11449-2 0  9996,2 53562  53.2160 266.4527 0001195  79.1236 280.9891 15.08848390 32587,6917.855,95.437,540.546,538.893,0.0
53562.0,STARLINK-4565,PAYLOAD,2023-03-16 12:07:00,15.08829038,0.0001165,53.216,263.7759,91.621,268.4915,0.00017899,2.561e-05,0.0,0 STARLINK-4565,1 53562U 22101AM  23075.50486204  .00002561  00000-0  17899-3 0  9994,2 53562  53.2160 263.7759 0001165  91.6210 268.4915 15.08829038 32016,6917.914,95.438,540.585,538.973,0.0
53562.0,STARLINK-4565,PAYLOAD,2023-03-16 13:42:23,15.08831051,0.0001185,53.2158,263.4789,91.4129,268.6998,0.00074103,0.00011522,0.0,0 STARLINK-4565,1 53562U 22101AM  23075.57110402  .00011522  00000-0  74103-3 0  9993,2 53562  53.2158 263.4789 0001185  91.4129 268.6998 15.08831051 32686,6917.908,95.438,540.593,538.953,0.0
53562.0,STARLINK-4565,PAYLOAD,2023-03-16 20:03:56,15.08833625,0.000118,53.2159,262.29,87.9356,272.1771,0.0012652,0.00019901,0.0,0 STARLINK-4565,1 53562U 22101AM  23075.83606624  .00019901  00000-0  12652-2 0  9997,2 53562  53.2159 262.2900 0001180  87.9356 272.1771 15.08833625 32729,6917.9,95.438,540.581,538.949,0.0
53562.0,STARLINK-4565,PAYLOAD,2023-03-17 11:57:47,15.08841963,0.0001225,53.2157,259.3156,88.7649,271.3483,0.0007682,0.0001196,0.0,0 STARLINK-4565,1 53562U 22101AM  23076.49846814  .00011960  00000-0  76820-3 0  9992,2 53562  53.2157 259.3156 0001225  88.7649 271.3483 15.08841963 32827,6917.874,95.437,540.587,538.892,0.0
53562.0,STARLINK-4565,PAYLOAD,2023-03-17 18:19:20,15.08851058,0.000123,53.2157,258.1264,87.0283,273.085,0.00089239,0.00013947,0.0,0 STARLINK-4565,1 53562U 22101AM  23076.76342676  .00013947  00000-0  89239-3 0  9994,2 53562  53.2157 258.1264 0001230  87.0283 273.0850 15.08851058 32201,6917.847,95.437,540.562,538.861,0.0
53562.0,STARLINK-4565,PAYLOAD,2023-03-18 05:27:01,15.08850252,0.0001753,53.2157,256.0451,84.6906,275.4286,0.00055751,8.598e-05,0.0,0 STARLINK-4565,1 53562U 22101AM  23077.22710646  .00008598  00000-0  55751-3 0  9990,2 53562  53.2157 256.0451 0001753  84.6906 275.4286 15.08850252 32272,6917.849,95.437,540.927,538.501,0.0
53562.0,STARLINK-4565,PAYLOAD,2023-03-18 21:20:52,15.08860944,0.000144,53.2158,253.0716,82.0817,278.0339,0.00053232,8.199e-05,0.0,0 STARLINK-4565,1 53562U 22101AM  23077.88949836  .00008199  00000-0  53232-3 0  9996,2 53562  53.2158 253.0716 0001440  82.0817 278.0339 15.08860944 33032,6917.816,95.436,540.678,538.685,0.0
53562.0,STARLINK-4565,PAYLOAD,2023-03-19 18:00:53,15.0884703,0.0001376,53.2155,249.2053,89.9445,270.1704,0.0001912,2.757e-05,0.0,0 STARLINK-4565,1 53562U 22101AM  23078.75061983  .00002757  00000-0  19120-3 0  9993,2 53562  53.2155 249.2053 0001376  89.9445 270.1704 15.08847030 32502,6917.859,95.437,540.676,538.772,0.0
53562.0,STARLINK-4565,PAYLOAD,2023-03-19 21:11:39,15.08848719,0.0001351,53.2159,248.6108,88.8591,271.2556,0.00025851,3.83e-05,0.0,0 STARLINK-4565,1 53562U 22101AM  23078.88309909  .00003830  00000-0  25851-3 0  9991,2 53562  53.2159 248.6108 0001351  88.8591 271.2556 15.08848719 33180,6917.854,95.437,540.653,538.784,0.0
53562.0,STARLINK-4565,PAYLOAD,2023-03-20 17:51:40,15.08841875,0.0001559,53.2171,244.7448,84.8745,275.2425,9.7599e-05,1.266e-05,0.0,0 STARLINK-4565,1 53562U 22101AM  23079.74422243  .00001266  00000-0  97599-4 0  9994,2 53562  53.2171 244.7448 0001559  84.8745 275.2425 15.08841875 32651,6917.875,95.437,540.818,538.661,0.0
